[{"OBJECT_NAME":"STARLINK-3852","OBJECT_ID":"2022-045Q","EPOCH":"2026-03-09T16:12:15.938208","MEAN_MOTION":15.08837906,"ECCENTRICITY":0.00013032,"INCLINATION":53.2166,"RA_OF_ASC_NODE":199.3501,"ARG_OF_PERICENTER":90.9929,"MEAN_ANOMALY":269.1213,"EPHEMERIS_TYPE":0,"CLASSIFICATION_TYPE":"U","NORAD_CAT_ID":52345,"ELEMENT_SET_NO":999,"REV_AT_EPOCH":21576,"BSTAR":7.3363788e-5,"MEAN_MOTION_DOT":8.8e-6,"MEAN_MOTION_DDOT":0},{"OBJECT_NAME":"FENGYUN 1C DEB","OBJECT_ID":"1999-025BQF","EPOCH":"2026-03-08T19:58:36.101856","MEAN_MOTION":15.15826086,"ECCENTRICITY":0.00798835,"INCLINATION":98.9812,"RA_OF_ASC_NODE":89.4872,"ARG_OF_PERICENTER":83.7388,"MEAN_ANOMALY":277.2932,"EPHEMERIS_TYPE":0,"CLASSIFICATION_TYPE":"U","NORAD_CAT_ID":31327,"ELEMENT_SET_NO":999,"REV_AT_EPOCH":1401,"BSTAR":0.0018254058,"MEAN_MOTION_DOT":0.00037915,"MEAN_MOTION_DDOT":0}]
